[{"OBJECT_NAME":"STARLINK-36198","OBJECT_ID":"2025-303E","EPOCH":"2026-03-09T16:00:03.000096","MEAN_MOTION":15.27564344,"ECCENTRICITY":0.0001517,"INCLINATION":43.0009,"RA_OF_ASC_NODE":311.2223,"ARG_OF_PERICENTER":270.5874,"MEAN_ANOMALY":221.4743,"EPHEMERIS_TYPE":0,"CLASSIFICATION_TYPE":"U","NORAD_CAT_ID":67167,"ELEMENT_SET_NO":999,"REV_AT_EPOCH":581,"BSTAR":0.0014632686,"MEAN_MOTION_DOT":0.00040204,"MEAN_MOTION_DDOT":0},{"OBJECT_NAME":"COSMOS 546","OBJECT_ID":"1973-005A","EPOCH":"2026-03-09T21:40:39.247392","MEAN_MOTION":15.29707303,"ECCENTRICITY":0.00147738,"INCLINATION":50.6327,"RA_OF_ASC_NODE":289.914,"ARG_OF_PERICENTER":261.1516,"MEAN_ANOMALY":98.7778,"EPHEMERIS_TYPE":0,"CLASSIFICATION_TYPE":"U","NORAD_CAT_ID":6350,"ELEMENT_SET_NO":999,"REV_AT_EPOCH":92802,"BSTAR":9.142057e-5,"MEAN_MOTION_DOT":2.316e-5,"MEAN_MOTION_DDOT":0}]
